ORBCOMM FM20            
1 25416U 98046D   24347.43635720  .00001804  00000+0  65763-3 0  9997
2 25416  44.9951 345.2014 0001972 303.9089  56.1570 14.36436660377406
ORBCOMM FM16            
1 25417U 98046E   24347.56683342  .00002386  00000+0  83072-3 0  9994
2 25417  44.9946 338.4123 0002969  44.2896 315.8189 14.37836242377383
ORBCOMM FM15            
1 25418U 98046F   24347.42979142  .00002481  00000+0  86736-3 0  9992
2 25418  44.9979 343.6759 0002484  41.1783 318.9252 14.37516646377362
ORBCOMM FM14            
1 25419U 98046G   24347.28176920  .00002542  00000+0  88242-3 0  9992
2 25419  44.9967 343.1027 0002168  10.3787 349.7105 14.37803255377302
ORBCOMM FM13            
1 25420U 98046H   24347.45491876  .00001983  00000+0  71322-3 0  9992
2 25420  44.9983 348.5840 0003899  30.7401 329.3675 14.36778205376372
ORBCOMM FM21            
1 25475U 98053A   24347.70386610  .00001880  00000+0  68143-3 0  9990
2 25475  45.0086  72.1377 0001708 268.2128  91.8524 14.36574445370754
ORBCOMM FM22            
1 25476U 98053B   24347.65403709  .00002238  00000+0  78926-3 0  9992
2 25476  45.0081  68.5808 0002615 313.6525  46.4106 14.37387440370785
ORBCOMM FM23            
1 25477U 98053C   24347.72342909  .00002136  00000+0  76634-3 0  9996
2 25477  45.0085  74.3766 0002019 297.3414  62.7228 14.36676802370880
